{
  "norad_id": 66273,
  "name": "STARLINK-35730",
  "history": [
    {
      "epoch": "2026-03-28T17:47:32.769600Z",
      "apogee_km": 475.9586456245688,
      "perigee_km": 474.3684057705859,
      "latitude_deg": -4.790741182930594e-05,
      "longitude_deg": 9.687079060053412,
      "height_km": 476.0897708622064,
      "semi_major_axis_km": 6853.300525697577,
      "eccentricity": 0.00011602,
      "inclination_deg": 53.1595,
      "raan_deg": 102.7311,
      "arg_perigee_deg": 92.0224,
      "mean_anomaly_deg": 268.0909,
      "mean_motion_rev_day": 15.30217263
    },
    {
      "epoch": "2026-03-29T04:45:54.851328Z",
      "apogee_km": 475.54978648319775,
      "perigee_km": 474.8027753355791,
      "latitude_deg": -1.3219946981795675e-05,
      "longitude_deg": -157.47773919949796,
      "height_km": 476.43429532061737,
      "semi_major_axis_km": 6853.313280909388,
      "eccentricity": 5.45e-05,
      "inclination_deg": 53.1576,
      "raan_deg": 100.6089,
      "arg_perigee_deg": 163.8412,
      "mean_anomaly_deg": 196.2606,
      "mean_motion_rev_day": 15.30212991
    },
    {
      "epoch": "2026-03-30T01:08:36.845088Z",
      "apogee_km": 475.7621244912316,
      "perigee_km": 474.58061412836287,
      "latitude_deg": -2.3174039919810007e-05,
      "longitude_deg": -107.9363284956302,
      "height_km": 475.7758499984581,
      "semi_major_axis_km": 6853.308369309797,
      "eccentricity": 8.62e-05,
      "inclination_deg": 53.156,
      "raan_deg": 96.6622,
      "arg_perigee_deg": 60.168,
      "mean_anomaly_deg": 299.9406,
      "mean_motion_rev_day": 15.30214636
    },
    {
      "epoch": "2026-03-30T05:50:46.384224Z",
      "apogee_km": 475.99780280224786,
      "perigee_km": 474.4573035179883,
      "latitude_deg": -1.0730047214695026e-05,
      "longitude_deg": -179.57999635948482,
      "height_km": 476.0718301398309,
      "semi_major_axis_km": 6853.364553160118,
      "eccentricity": 0.00011239,
      "inclination_deg": 53.1563,
      "raan_deg": 95.7514,
      "arg_perigee_deg": 86.0094,
      "mean_anomaly_deg": 274.1035,
      "mean_motion_rev_day": 15.30195819
    },
    {
      "epoch": "2026-03-30T07:24:49.695264Z",
      "apogee_km": 476.25436803773573,
      "perigee_km": 474.2189160660455,
      "latitude_deg": 1.5223138753637574e-05,
      "longitude_deg": 156.54134856821466,
      "height_km": 476.1604940682933,
      "semi_major_axis_km": 6853.37364205189,
      "eccentricity": 0.0001485,
      "inclination_deg": 53.1581,
      "raan_deg": 95.4509,
      "arg_perigee_deg": 91.4799,
      "mean_anomaly_deg": 268.6372,
      "mean_motion_rev_day": 15.30192775
    },
    {
      "epoch": "2026-03-30T16:49:08.639616Z",
      "apogee_km": 476.0559883817932,
      "perigee_km": 474.28673829471336,
      "latitude_deg": 1.1934083797234417e-05,
      "longitude_deg": 13.254251372348968,
      "height_km": 475.9345915226633,
      "semi_major_axis_km": 6853.308363338253,
      "eccentricity": 0.00012908,
      "inclination_deg": 53.1575,
      "raan_deg": 93.629,
      "arg_perigee_deg": 81.2497,
      "mean_anomaly_deg": 278.865,
      "mean_motion_rev_day": 15.30214638
    },
    {
      "epoch": "2026-03-31T06:55:36.990048Z",
      "apogee_km": 475.88942814142956,
      "perigee_km": 474.58317519013326,
      "latitude_deg": -1.935712004016593e-05,
      "longitude_deg": 158.32671216456308,
      "height_km": 475.99252036624137,
      "semi_major_axis_km": 6853.373301665782,
      "eccentricity": 9.53e-05,
      "inclination_deg": 53.1576,
      "raan_deg": 90.899,
      "arg_perigee_deg": 77.4374,
      "mean_anomaly_deg": 282.6733,
      "mean_motion_rev_day": 15.30192889
    },
    {
      "epoch": "2026-04-01T06:26:25.647360Z",
      "apogee_km": 475.9655588286987,
      "perigee_km": 474.5057904490004,
      "latitude_deg": -9.509271312126584e-06,
      "longitude_deg": 160.10881624642028,
      "height_km": 475.98485276242377,
      "semi_major_axis_km": 6853.372674638849,
      "eccentricity": 0.0001065,
      "inclination_deg": 53.1575,
      "raan_deg": 86.3495,
      "arg_perigee_deg": 78.2257,
      "mean_anomaly_deg": 281.8863,
      "mean_motion_rev_day": 15.30193099
    },
    {
      "epoch": "2026-04-02T05:57:13.497696Z",
      "apogee_km": 475.9954977033203,
      "perigee_km": 474.3944222908258,
      "latitude_deg": 3.568573840267988e-05,
      "longitude_deg": 161.89121801664723,
      "height_km": 476.094870245327,
      "semi_major_axis_km": 6853.331959997073,
      "eccentricity": 0.00011681,
      "inclination_deg": 53.1584,
      "raan_deg": 81.7969,
      "arg_perigee_deg": 90.1339,
      "mean_anomaly_deg": 269.9796,
      "mean_motion_rev_day": 15.30206735
    },
    {
      "epoch": "2026-04-02T23:11:48.743232Z",
      "apogee_km": 476.1166811773428,
      "perigee_km": 474.1650047132289,
      "latitude_deg": 3.747351474161933e-05,
      "longitude_deg": -100.80058648018972,
      "height_km": 475.97610545934737,
      "semi_major_axis_km": 6853.277842945286,
      "eccentricity": 0.00014239,
      "inclination_deg": 53.1591,
      "raan_deg": 78.4601,
      "arg_perigee_deg": 86.3271,
      "mean_anomaly_deg": 273.7893,
      "mean_motion_rev_day": 15.3022486
    },
    {
      "epoch": "2026-04-03T08:36:08.171424Z",
      "apogee_km": 476.19829441384445,
      "perigee_km": 474.29031305888475,
      "latitude_deg": -9.705583562419258e-06,
      "longitude_deg": 115.91206164683877,
      "height_km": 476.10998977303825,
      "semi_major_axis_km": 6853.381303736364,
      "eccentricity": 0.0001392,
      "inclination_deg": 53.1594,
      "raan_deg": 76.64,
      "arg_perigee_deg": 88.0684,
      "mean_anomaly_deg": 272.0476,
      "mean_motion_rev_day": 15.30190209
    },
    {
      "epoch": "2026-04-04T04:58:47.949888Z",
      "apogee_km": 476.37846143757633,
      "perigee_km": 474.01104651648257,
      "latitude_deg": -9.46460775808588e-06,
      "longitude_deg": 165.46453491239373,
      "height_km": 476.28251961015593,
      "semi_major_axis_km": 6853.33175397703,
      "eccentricity": 0.00017272,
      "inclination_deg": 53.1597,
      "raan_deg": 72.6951,
      "arg_perigee_deg": 99.2529,
      "mean_anomaly_deg": 260.8667,
      "mean_motion_rev_day": 15.30206804
    },
    {
      "epoch": "2026-04-05T07:37:43.251744Z",
      "apogee_km": 476.57040105755095,
      "perigee_km": 474.0913646549643,
      "latitude_deg": -1.0732137702311352e-05,
      "longitude_deg": 119.48318523235194,
      "height_km": 476.34097059644444,
      "semi_major_axis_km": 6853.467882856257,
      "eccentricity": 0.00018086,
      "inclination_deg": 53.1606,
      "raan_deg": 67.5386,
      "arg_perigee_deg": 95.2172,
      "mean_anomaly_deg": 264.9035,
      "mean_motion_rev_day": 15.30161213
    },
    {
      "epoch": "2026-04-05T15:27:59.757696Z",
      "apogee_km": 476.58122117585754,
      "perigee_km": 474.0015907238585,
      "latitude_deg": -4.504674073670473e-05,
      "longitude_deg": 0.07389241419423791,
      "height_km": 476.39839917866004,
      "semi_major_axis_km": 6853.428405949858,
      "eccentricity": 0.0001882,
      "inclination_deg": 53.1602,
      "raan_deg": 66.02,
      "arg_perigee_deg": 99.3582,
      "mean_anomaly_deg": 260.7631,
      "mean_motion_rev_day": 15.30174434
    },
    {
      "epoch": "2026-04-06T04:00:25.623936Z",
      "apogee_km": 476.5076105876342,
      "perigee_km": 473.95363460939734,
      "latitude_deg": 2.0306738966589585e-05,
      "longitude_deg": 169.0248432630914,
      "height_km": 476.39092528607875,
      "semi_major_axis_km": 6853.3676225985155,
      "eccentricity": 0.00018633,
      "inclination_deg": 53.1611,
      "raan_deg": 63.5937,
      "arg_perigee_deg": 101.8807,
      "mean_anomaly_deg": 258.2403,
      "mean_motion_rev_day": 15.30194791
    },
    {
      "epoch": "2026-04-07T03:31:13.417248Z",
      "apogee_km": 476.99317499951394,
      "perigee_km": 473.2844562591272,
      "latitude_deg": 4.102046035622821e-05,
      "longitude_deg": 170.80946146988336,
      "height_km": 476.1204126592695,
      "semi_major_axis_km": 6853.27581562932,
      "eccentricity": 0.00027058,
      "inclination_deg": 53.1603,
      "raan_deg": 59.0431,
      "arg_perigee_deg": 92.6456,
      "mean_anomaly_deg": 267.4855,
      "mean_motion_rev_day": 15.30225539
    },
    {
      "epoch": "2026-04-08T04:36:04.608000Z",
      "apogee_km": 476.2419742499869,
      "perigee_km": 474.2085816621184,
      "latitude_deg": 6.479538665751677e-05,
      "longitude_deg": 148.71274588623947,
      "height_km": 476.2058967018903,
      "semi_major_axis_km": 6853.362277956053,
      "eccentricity": 0.00014835,
      "inclination_deg": 53.1616,
      "raan_deg": 54.1897,
      "arg_perigee_deg": 94.6642,
      "mean_anomaly_deg": 265.4529,
      "mean_motion_rev_day": 15.30196581
    },
    {
      "epoch": "2026-04-09T13:31:11.708544Z",
      "apogee_km": 475.9139691595401,
      "perigee_km": 474.5391844260357,
      "latitude_deg": 4.861361721556409e-06,
      "longitude_deg": 7.211591033991215,
      "height_km": 476.3215690621939,
      "semi_major_axis_km": 6853.363576792788,
      "eccentricity": 0.0001003,
      "inclination_deg": 53.1617,
      "raan_deg": 47.8201,
      "arg_perigee_deg": 106.5951,
      "mean_anomaly_deg": 253.516,
      "mean_motion_rev_day": 15.30196146
    },
    {
      "epoch": "2026-04-10T13:01:59.939040Z",
      "apogee_km": 476.90544399785995,
      "perigee_km": 473.53359259085937,
      "latitude_deg": 2.1885805073398915e-05,
      "longitude_deg": 8.991879836677198,
      "height_km": 475.74850746432196,
      "semi_major_axis_km": 6853.356518294359,
      "eccentricity": 0.000246,
      "inclination_deg": 53.1591,
      "raan_deg": 43.267,
      "arg_perigee_deg": 77.4146,
      "mean_anomaly_deg": 282.713,
      "mean_motion_rev_day": 15.3019851
    }
  ]
}